OBJECT_NAME,OBJECT_ID,EPOCH,MEAN_MOTION,ECCENTRICITY,INCLINATION,RA_OF_ASC_NODE,ARG_OF_PERICENTER,MEAN_ANOMALY,EPHEMERIS_TYPE,CLASSIFICATION_TYPE,NORAD_CAT_ID,ELEMENT_SET_NO,REV_AT_EPOCH,BSTAR,MEAN_MOTION_DOT,MEAN_MOTION_DDOT
OSCAR 7 (AO-7),1974-089B,2026-07-09T07:53:43.179072,12.53698424,.00126631,101.9902,203.8062,89.1895,342.2557,0,U,7530,999,36329,.49724075E-4,-.38E-6,0
PHASE 3B (AO-10),1983-058B,2026-07-08T05:57:58.960512,2.05869766,.60038265,25.9305,216.0918,121.4539,310.7883,0,U,14129,999,29592,0,.202E-5,0
UOSAT 2 (UO-11),1984-021B,2026-07-09T16:56:58.956288,14.90840274,.0009168,97.8072,156.0317,106.4358,253.7868,0,U,14781,999,26048,.98723E-4,.917E-5,0
LUSAT (LO-19),1990-005G,2026-07-09T00:28:07.216608,14.34129510,.00123077,98.8846,212.4261,138.2781,221.9344,0,U,20442,999,90552,.37536928E-4,.58E-6,0
EYESAT A (AO-27),1993-061C,2026-07-09T03:58:35.219424,14.30948062,.00090814,98.6870,257.5702,42.3993,317.7889,0,U,22825,999,71014,.33846407E-4,.44E-6,0
ITAMSAT (IO-26),1993-061D,2026-07-09T03:19:29.664192,14.31375523,.00093147,98.6818,257.4628,26.5022,333.6635,0,U,22826,999,71045,.31710822E-4,.39E-6,0
RADIO ROSTO (RS15),1994-085A,2026-07-09T19:41:21.529248,11.27583503,.0156721,64.8161,266.6132,359.6983,0.3824,0,U,23439,999,29845,.15634E-3,-.37E-6,0
JAS-2 (FO-29),1996-046B,2026-07-09T01:08:21.204960,13.53275148,.0350601,98.5224,35.9232,39.8653,322.7685,0,U,24278,999,47612,.35079079E-4,.1E-7,0
TECHSAT 1B (GO-32),1998-043D,2026-07-09T16:22:56.830080,14.24432637,.0002038,99.0080,184.0097,123.5145,236.6227,0,U,25397,999,45453,.34171E-4,.32E-6,0
ISS (ZARYA),1998-067A,2026-07-09T16:50:48.208704,15.48959671,.0006668,51.6304,188.6620,275.8666,84.1562,0,U,25544,999,57524,.1058E-3,.5376E-4,0
PCSAT (NO-44),2001-043C,2026-07-09T17:15:48.886848,14.31963636,.0005974,67.0489,185.9927,266.2577,93.7842,0,U,26931,999,29367,.53843E-4,.61E-6,0
SAUDISAT 1C (SO-50),2002-058C,2026-07-09T01:41:29.154048,14.83090961,.0074702,64.5518,61.2774,258.4036,100.8678,0,U,27607,999,26770,.80073889E-4,.528E-5,0
CUTE-1 (CO-55),2003-031E,2026-07-08T22:54:25.227360,14.24348882,.00106848,98.6739,198.2397,118.8005,241.4249,0,U,27844,999,19477,.10410026E-3,.197E-5,0
CUBESAT XI-IV (CO-57),2003-031J,2026-07-08T11:05:05.892000,14.23632050,.00102587,98.6772,197.4488,137.0463,223.1519,0,U,27848,999,19440,.99678022E-4,.184E-5,0
MOZHAETS 4 (RS22),2003-042A,2026-07-09T21:38:52.791360,14.73509643,.0010788,98.3481,15.9040,190.2727,278.6487,0,U,27939,999,21889,.16487E-3,.1018E-4,0
CUBESAT XI-V,2005-043F,2026-07-09T16:31:32.390112,14.72693331,.0015063,98.3008,346.7863,131.3789,228.8716,0,U,28895,999,10506,.15777E-3,.955E-5,0
CUTE-1.7+APD II (CO-65),2008-021C,2026-07-09T20:27:17.232192,15.09668455,.0007395,97.8283,172.7468,321.0588,39.0107,0,U,32785,999,98861,.19206E-3,.3026E-4,0
SEEDS II (CO-66),2008-021J,2026-07-08T22:26:38.629248,15.33517693,.00023514,97.7528,188.8830,170.9352,189.1933,0,U,32791,999,99062,.39659306E-3,.12773E-3,0
YUBILEINY (RS30),2008-025A,2026-07-09T19:02:19.190688,12.43180747,.0018533,82.5058,341.3769,261.5134,98.3845,0,U,32953,999,82250,.6733E-3,.103E-5,0
KKS-1 (KISEKI),2009-002H,2026-07-09T18:57:26.349120,14.83181134,.0006992,98.1179,113.5903,207.8239,152.2601,0,U,33499,999,93954,.1083E-3,.828E-5,0
SWISSCUBE,2009-051B,2026-07-09T12:58:48.892224,14.62524151,.0007556,98.4016,98.8171,134.3316,225.8505,0,U,35932,999,89242,.13666E-3,.644E-5,0
BEESAT-1,2009-051C,2026-07-09T13:29:13.081344,14.61756321,.0005799,98.3943,98.4270,144.7622,215.3963,0,U,35933,999,89245,.1159E-3,.529E-5,0
ITUPSAT1,2009-051E,2026-07-08T13:04:29.830080,14.60472478,.00076108,98.4027,96.5634,162.4704,197.6760,0,U,35935,999,89185,.12544193E-3,.56E-5,0
XIWANG-1 (HOPE-1),2009-072B,2026-07-09T19:34:29.459136,13.16440330,.0007385,100.4032,144.2872,176.8858,183.2302,0,U,36122,999,79598,-.18461E-4,-.51E-6,0
O/OREOS (USA 219),2010-062C,2026-07-09T05:29:01.232736,14.93837463,.00136365,71.9709,30.4075,16.8017,343.3602,0,U,37224,999,11993,.14125066E-3,.1439E-4,0
JUGNU,2011-058B,2026-07-09T00:44:46.468032,14.13782334,.00183769,19.9588,175.7154,318.1720,84.2013,0,U,37839,999,76212,.60431416E-4,.383E-5,0
SRMSAT,2011-058D,2026-07-09T14:59:25.033056,14.11580289,.0011875,19.9720,283.6652,90.4763,307.0339,0,U,37841,999,76099,.48802E-4,.355E-5,0
STRAND-1,2013-009E,2026-07-09T18:03:45.796032,14.37176789,.0009109,98.3931,10.4326,156.1916,203.9694,0,U,39090,999,70030,.76183E-4,.184E-5,0
ZACUBE-1 (TSHEPISOSAT),2013-066B,2026-07-09T03:16:03.961344,15.01311101,.00436571,97.8016,152.5825,174.6140,185.5562,0,U,39417,999,68402,.12533182E-3,.1581E-4,0
GOMX-1,2013-066Q,2026-07-09T19:00:46.227744,14.69533953,.0128782,97.6479,29.8286,5.5778,354.6828,0,U,39430,999,67323,.15327E-3,.98E-5,0
